[{"OBJECT_NAME":"STARLINK-5998","OBJECT_ID":"2023-064W","EPOCH":"2026-03-09T15:26:25.833984","MEAN_MOTION":14.98347142,"ECCENTRICITY":0.0002898,"INCLINATION":70.0004,"RA_OF_ASC_NODE":144.392,"ARG_OF_PERICENTER":270.8108,"MEAN_ANOMALY":89.2719,"EPHEMERIS_TYPE":0,"CLASSIFICATION_TYPE":"U","NORAD_CAT_ID":56468,"ELEMENT_SET_NO":999,"REV_AT_EPOCH":15524,"BSTAR":-0.00030477,"MEAN_MOTION_DOT":-3.729e-5,"MEAN_MOTION_DDOT":0},{"OBJECT_NAME":"FTV 3502","OBJECT_ID":"1962-039A","EPOCH":"2026-03-09T21:41:26.705184","MEAN_MOTION":14.91961609,"ECCENTRICITY":0.00806549,"INCLINATION":98.4622,"RA_OF_ASC_NODE":145.9901,"ARG_OF_PERICENTER":91.4356,"MEAN_ANOMALY":269.6102,"EPHEMERIS_TYPE":0,"CLASSIFICATION_TYPE":"U","NORAD_CAT_ID":369,"ELEMENT_SET_NO":999,"REV_AT_EPOCH":40080,"BSTAR":0.00025514942,"MEAN_MOTION_DOT":2.681e-5,"MEAN_MOTION_DDOT":0}]
